CCSDS_OMM_VERS = 2.0
CREATION_DATE  = 
ORIGINATOR     = 

OBJECT_NAME    = SL-3 R/B
OBJECT_ID      = 1982-039B
CENTER_NAME    = EARTH
REF_FRAME      = TEME
TIME_SYSTEM    = UTC
MEAN_ELEMENT_THEORY = SGP/SGP4

EPOCH          = 2025-11-12T19:23:29.383008
MEAN_MOTION    = 15.09280776
ECCENTRICITY   = .0032182
INCLINATION    = 81.1797
RA_OF_ASC_NODE = 350.5149
ARG_OF_PERICENTER = 350.5928
MEAN_ANOMALY   = 9.4689

EPHEMERIS_TYPE = 0
CLASSIFICATION_TYPE = U
NORAD_CAT_ID   = 13154
ELEMENT_SET_NO = 999
REV_AT_EPOCH   = 36400
BSTAR          = .39567E-3
MEAN_MOTION_DOT = .6401E-4
MEAN_MOTION_DDOT = 0

CCSDS_OMM_VERS = 2.0
CREATION_DATE  = 
ORIGINATOR     = 

OBJECT_NAME    = SL-3 R/B
OBJECT_ID      = 1982-079B
CENTER_NAME    = EARTH
REF_FRAME      = TEME
TIME_SYSTEM    = UTC
MEAN_ELEMENT_THEORY = SGP/SGP4

EPOCH          = 2025-11-12T19:03:24.189408
MEAN_MOTION    = 15.23123243
ECCENTRICITY   = .002526
INCLINATION    = 81.1470
RA_OF_ASC_NODE = 330.9519
ARG_OF_PERICENTER = 197.7660
MEAN_ANOMALY   = 162.2692

EPHEMERIS_TYPE = 0
CLASSIFICATION_TYPE = U
NORAD_CAT_ID   = 13403
ELEMENT_SET_NO = 999
REV_AT_EPOCH   = 35989
BSTAR          = .54224E-3
MEAN_MOTION_DOT = .12942E-3
MEAN_MOTION_DDOT = 0

CCSDS_OMM_VERS = 2.0
CREATION_DATE  = 
ORIGINATOR     = 

OBJECT_NAME    = SL-14 R/B
OBJECT_ID      = 1982-092B
CENTER_NAME    = EARTH
REF_FRAME      = TEME
TIME_SYSTEM    = UTC
MEAN_ELEMENT_THEORY = SGP/SGP4

EPOCH          = 2025-11-12T07:59:17.307744
MEAN_MOTION    = 14.86505259
ECCENTRICITY   = .00197542
INCLINATION    = 82.5681
RA_OF_ASC_NODE = 251.1462
ARG_OF_PERICENTER = 335.0480
MEAN_ANOMALY   = 140.5935

EPHEMERIS_TYPE = 0
CLASSIFICATION_TYPE = U
NORAD_CAT_ID   = 13553
ELEMENT_SET_NO = 999
REV_AT_EPOCH   = 31149
BSTAR          = .15704477E-3
MEAN_MOTION_DOT = .1417E-4
MEAN_MOTION_DDOT = 0

CCSDS_OMM_VERS = 2.0
CREATION_DATE  = 
ORIGINATOR     = 

OBJECT_NAME    = SL-3 R/B
OBJECT_ID      = 1983-010B
CENTER_NAME    = EARTH
REF_FRAME      = TEME
TIME_SYSTEM    = UTC
MEAN_ELEMENT_THEORY = SGP/SGP4

EPOCH          = 2025-11-12T19:26:10.610592
MEAN_MOTION    = 15.42375358
ECCENTRICITY   = .0018356
INCLINATION    = 81.1026
RA_OF_ASC_NODE = 145.1230
ARG_OF_PERICENTER = 93.0942
MEAN_ANOMALY   = 267.2401

EPHEMERIS_TYPE = 0
CLASSIFICATION_TYPE = U
NORAD_CAT_ID   = 13819
ELEMENT_SET_NO = 999
REV_AT_EPOCH   = 33990
BSTAR          = .58605E-3
MEAN_MOTION_DOT = .2552E-3
MEAN_MOTION_DDOT = 0

CCSDS_OMM_VERS = 2.0
CREATION_DATE  = 
ORIGINATOR     = 

OBJECT_NAME    = SL-3 R/B
OBJECT_ID      = 1983-075B
CENTER_NAME    = EARTH
REF_FRAME      = TEME
TIME_SYSTEM    = UTC
MEAN_ELEMENT_THEORY = SGP/SGP4

EPOCH          = 2025-11-12T19:32:41.974080
MEAN_MOTION    = 15.35285140
ECCENTRICITY   = .0021184
INCLINATION    = 97.6109
RA_OF_ASC_NODE = 312.3130
ARG_OF_PERICENTER = 289.3524
MEAN_ANOMALY   = 70.5429

EPHEMERIS_TYPE = 0
CLASSIFICATION_TYPE = U
NORAD_CAT_ID   = 14208
ELEMENT_SET_NO = 999
REV_AT_EPOCH   = 31220
BSTAR          = .68576E-3
MEAN_MOTION_DOT = .23626E-3
MEAN_MOTION_DDOT = 0

CCSDS_OMM_VERS = 2.0
CREATION_DATE  = 
ORIGINATOR     = 

OBJECT_NAME    = COSMOS 1536
OBJECT_ID      = 1984-013A
CENTER_NAME    = EARTH
REF_FRAME      = TEME
TIME_SYSTEM    = UTC
MEAN_ELEMENT_THEORY = SGP/SGP4

EPOCH          = 2025-11-12T05:46:14.918880
MEAN_MOTION    = 15.21989917
ECCENTRICITY   = .00147621
INCLINATION    = 82.5469
RA_OF_ASC_NODE = 224.3948
ARG_OF_PERICENTER = 344.1106
MEAN_ANOMALY   = 15.9665

EPHEMERIS_TYPE = 0
CLASSIFICATION_TYPE = U
NORAD_CAT_ID   = 14699
ELEMENT_SET_NO = 999
REV_AT_EPOCH   = 25474
BSTAR          = .667854E-3
MEAN_MOTION_DOT = .1533E-3
MEAN_MOTION_DDOT = 0

CCSDS_OMM_VERS = 2.0
CREATION_DATE  = 
ORIGINATOR     = 

OBJECT_NAME    = SL-14 R/B
OBJECT_ID      = 1984-027B
CENTER_NAME    = EARTH
REF_FRAME      = TEME
TIME_SYSTEM    = UTC
MEAN_ELEMENT_THEORY = SGP/SGP4

EPOCH          = 2025-11-12T04:24:38.365632
MEAN_MOTION    = 14.85826186
ECCENTRICITY   = .00181306
INCLINATION    = 82.5428
RA_OF_ASC_NODE = 355.2122
ARG_OF_PERICENTER = 7.7853
MEAN_ANOMALY   = 352.3641

EPHEMERIS_TYPE = 0
CLASSIFICATION_TYPE = U
NORAD_CAT_ID   = 14820
ELEMENT_SET_NO = 999
REV_AT_EPOCH   = 23018
BSTAR          = .78179875E-4
MEAN_MOTION_DOT = .706E-5
MEAN_MOTION_DDOT = 0

CCSDS_OMM_VERS = 2.0
CREATION_DATE  = 
ORIGINATOR     = 

OBJECT_NAME    = SL-8 R/B
OBJECT_ID      = 1985-006B
CENTER_NAME    = EARTH
REF_FRAME      = TEME
TIME_SYSTEM    = UTC
MEAN_ELEMENT_THEORY = SGP/SGP4

EPOCH          = 2025-11-12T18:01:58.934784
MEAN_MOTION    = 14.37693162
ECCENTRICITY   = .00176
INCLINATION    = 74.0433
RA_OF_ASC_NODE = 116.3064
ARG_OF_PERICENTER = 58.1986
MEAN_ANOMALY   = 313.1956

EPHEMERIS_TYPE = 0
CLASSIFICATION_TYPE = U
NORAD_CAT_ID   = 15483
ELEMENT_SET_NO = 999
REV_AT_EPOCH   = 13722
BSTAR          = .18595E-3
MEAN_MOTION_DOT = .534E-5
MEAN_MOTION_DDOT = 0

CCSDS_OMM_VERS = 2.0
CREATION_DATE  = 
ORIGINATOR     = 

OBJECT_NAME    = SL-12 R/B(2)
OBJECT_ID      = 1985-042D
CENTER_NAME    = EARTH
REF_FRAME      = TEME
TIME_SYSTEM    = UTC
MEAN_ELEMENT_THEORY = SGP/SGP4

EPOCH          = 2025-11-12T19:11:29.256288
MEAN_MOTION    = 14.21937227
ECCENTRICITY   = .0037253
INCLINATION    = 71.1085
RA_OF_ASC_NODE = 334.6738
ARG_OF_PERICENTER = 305.3417
MEAN_ANOMALY   = 227.3261

EPHEMERIS_TYPE = 0
CLASSIFICATION_TYPE = U
NORAD_CAT_ID   = 15772
ELEMENT_SET_NO = 999
REV_AT_EPOCH   = 9777
BSTAR          = .83268E-4
MEAN_MOTION_DOT = .137E-5
MEAN_MOTION_DDOT = 0

CCSDS_OMM_VERS = 2.0
CREATION_DATE  = 
ORIGINATOR     = 

OBJECT_NAME    = SL-14 R/B
OBJECT_ID      = 1985-069B
CENTER_NAME    = EARTH
REF_FRAME      = TEME
TIME_SYSTEM    = UTC
MEAN_ELEMENT_THEORY = SGP/SGP4

EPOCH          = 2025-11-12T17:49:29.551296
MEAN_MOTION    = 14.86271024
ECCENTRICITY   = .0017878
INCLINATION    = 82.5247
RA_OF_ASC_NODE = 134.9051
ARG_OF_PERICENTER = 216.2577
MEAN_ANOMALY   = 143.7430

EPHEMERIS_TYPE = 0
CLASSIFICATION_TYPE = U
NORAD_CAT_ID   = 15945
ELEMENT_SET_NO = 999
REV_AT_EPOCH   = 15546
BSTAR          = .12001E-3
MEAN_MOTION_DOT = .1082E-4
MEAN_MOTION_DDOT = 0

CCSDS_OMM_VERS = 2.0
CREATION_DATE  = 
ORIGINATOR     = 

OBJECT_NAME    = SL-16 R/B
OBJECT_ID      = 1985-097B
CENTER_NAME    = EARTH
REF_FRAME      = TEME
TIME_SYSTEM    = UTC
MEAN_ELEMENT_THEORY = SGP/SGP4

EPOCH          = 2025-11-12T15:29:18.760992
MEAN_MOTION    = 14.16575941
ECCENTRICITY   = .0005255
INCLINATION    = 71.0045
RA_OF_ASC_NODE = 26.9600
ARG_OF_PERICENTER = 67.9894
MEAN_ANOMALY   = 84.2042

EPHEMERIS_TYPE = 0
CLASSIFICATION_TYPE = U
NORAD_CAT_ID   = 16182
ELEMENT_SET_NO = 999
REV_AT_EPOCH   = 7065
BSTAR          = .15161E-4
MEAN_MOTION_DOT = -.18E-6
MEAN_MOTION_DDOT = 0

CCSDS_OMM_VERS = 2.0
CREATION_DATE  = 
ORIGINATOR     = 

OBJECT_NAME    = SL-14 R/B
OBJECT_ID      = 1986-006B
CENTER_NAME    = EARTH
REF_FRAME      = TEME
TIME_SYSTEM    = UTC
MEAN_ELEMENT_THEORY = SGP/SGP4

EPOCH          = 2025-11-12T14:43:22.035072
MEAN_MOTION    = 14.86610014
ECCENTRICITY   = .0075452
INCLINATION    = 82.5290
RA_OF_ASC_NODE = 9.8963
ARG_OF_PERICENTER = 301.4177
MEAN_ANOMALY   = 57.9675

EPHEMERIS_TYPE = 0
CLASSIFICATION_TYPE = U
NORAD_CAT_ID   = 16496
ELEMENT_SET_NO = 999
REV_AT_EPOCH   = 13181
BSTAR          = .13303E-3
MEAN_MOTION_DOT = .1267E-4
MEAN_MOTION_DDOT = 0

