SL-3 R/B                
1 13154U 82039B   25316.80797897  .00006401  00000+0  39567-3 0  9991
2 13154  81.1797 350.5149 0032182 350.5928   9.4689 15.09280776364008
SL-3 R/B                
1 13403U 82079B   25316.79402997  .00012942  00000+0  54224-3 0  9998
2 13403  81.1470 330.9519 0025260 197.7660 162.2692 15.23123243359893
SL-14 R/B               
1 13553U 82092B   25316.33283921  .00001417  00000+0  15704-3 0  9998
2 13553  82.5681 251.1462 0019754 335.0480 140.5935 14.86505259311499
SL-3 R/B                
1 13819U 83010B   25316.80984503  .00025520  00000+0  58605-3 0  9998
2 13819  81.1026 145.1230 0018356  93.0942 267.2401 15.42375358339907
SL-3 R/B                
1 14208U 83075B   25316.81437470  .00023626  00000+0  68576-3 0  9992
2 14208  97.6109 312.3130 0021184 289.3524  70.5429 15.35285140312200
COSMOS 1536             
1 14699U 84013A   25316.24045045  .00015330  00000+0  66785-3 0  9992
2 14699  82.5469 224.3948 0014762 344.1106  15.9665 15.21989917254742
SL-14 R/B               
1 14820U 84027B   25316.18377738  .00000706  00000+0  78180-4 0  9997
2 14820  82.5428 355.2122 0018130   7.7853 352.3641 14.85826186230186
SL-8 R/B                
1 15483U 85006B   25316.75137656  .00000534  00000+0  18595-3 0  9999
2 15483  74.0433 116.3064 0017600  58.1986 313.1956 14.37693162137221
SL-12 R/B(2)            
1 15772U 85042D   25316.79964417  .00000137  00000+0  83268-4 0  9996
2 15772  71.1085 334.6738 0037253 305.3417 227.3261 14.21937227 97774
SL-14 R/B               
1 15945U 85069B   25316.74270314  .00001082  00000+0  12001-3 0  9994
2 15945  82.5247 134.9051 0017878 216.2577 143.7430 14.86271024155466
SL-16 R/B               
1 16182U 85097B   25316.64535603 -.00000018  00000+0  15161-4 0  9993
2 16182  71.0045  26.9600 0005255  67.9894  84.2042 14.16575941 70651
SL-14 R/B               
1 16496U 86006B   25316.61344948  .00001267  00000+0  13303-3 0  9990
2 16496  82.5290   9.8963 0075452 301.4177  57.9675 14.86610014131819
